SWAS                    
1 25560U 98071A   26068.53487068  .00004636  00000+0  29986-3 0  9991
2 25560  69.8952 124.3662 0004099  14.3215 345.8065 15.08888192482231
STARLINK-3766           
1 52296U 22041AM  26068.80116918  .00000010  00000+0  18732-4 0  9994
2 52296  53.2167  98.6191 0001405  90.4516 269.6637 15.08840188214525
