[{"OBJECT_NAME":"SWAS","OBJECT_ID":"1998-071A","EPOCH":"2026-03-09T12:50:12.826752","MEAN_MOTION":15.08888192,"ECCENTRICITY":0.00040991,"INCLINATION":69.8952,"RA_OF_ASC_NODE":124.3662,"ARG_OF_PERICENTER":14.3215,"MEAN_ANOMALY":345.8065,"EPHEMERIS_TYPE":0,"CLASSIFICATION_TYPE":"U","NORAD_CAT_ID":25560,"ELEMENT_SET_NO":999,"REV_AT_EPOCH":48223,"BSTAR":0.00029986322,"MEAN_MOTION_DOT":4.636e-5,"MEAN_MOTION_DDOT":0},{"OBJECT_NAME":"STARLINK-3766","OBJECT_ID":"2022-041AM","EPOCH":"2026-03-09T19:13:41.018016","MEAN_MOTION":15.08840188,"ECCENTRICITY":0.0001405,"INCLINATION":53.2167,"RA_OF_ASC_NODE":98.6191,"ARG_OF_PERICENTER":90.4516,"MEAN_ANOMALY":269.6637,"EPHEMERIS_TYPE":0,"CLASSIFICATION_TYPE":"U","NORAD_CAT_ID":52296,"ELEMENT_SET_NO":999,"REV_AT_EPOCH":21452,"BSTAR":1.8732285e-5,"MEAN_MOTION_DOT":1.0e-7,"MEAN_MOTION_DDOT":0}]
